[{"OBJECT_NAME":"STARLINK-32351","OBJECT_ID":"2024-183W","EPOCH":"2026-03-09T11:54:55.147104","MEAN_MOTION":15.30214843,"ECCENTRICITY":7.374e-5,"INCLINATION":53.1595,"RA_OF_ASC_NODE":140.4621,"ARG_OF_PERICENTER":79.9305,"MEAN_ANOMALY":280.1779,"EPHEMERIS_TYPE":0,"CLASSIFICATION_TYPE":"U","NORAD_CAT_ID":61529,"ELEMENT_SET_NO":999,"REV_AT_EPOCH":7966,"BSTAR":-1.091376e-5,"MEAN_MOTION_DOT":-6.82e-6,"MEAN_MOTION_DDOT":0},{"OBJECT_NAME":"COSMOS 1862","OBJECT_ID":"1987-055A","EPOCH":"2026-03-09T22:37:02.390592","MEAN_MOTION":15.30492139,"ECCENTRICITY":0.00097484,"INCLINATION":82.4856,"RA_OF_ASC_NODE":47.1862,"ARG_OF_PERICENTER":26.6325,"MEAN_ANOMALY":333.5414,"EPHEMERIS_TYPE":0,"CLASSIFICATION_TYPE":"U","NORAD_CAT_ID":18152,"ELEMENT_SET_NO":999,"REV_AT_EPOCH":8987,"BSTAR":0.00034125048,"MEAN_MOTION_DOT":0.00010107,"MEAN_MOTION_DDOT":0}]
